     3.03           N: GNSS NAV DATA    G: GPS              RINEX VERSION / TYPE
sbf2rin-13.0.0x                         20200102 010155 UTC PGM / RUN BY / DATE
GPSA   7.4506E-09 -1.4901E-08 -5.9605E-08  1.1921E-07       IONOSPHERIC CORR
GPSB   9.0112E+04 -6.5536E+04 -1.3107E+05  4.5875E+05       IONOSPHERIC CORR
                                                            COMMENT
                                                            COMMENT
ABPO                                    MARKER NAME         COMMENT
33302M001                               MARKER NUMBER       COMMENT
  4097216.5539  4429119.1897 -2065771.1988                  COMMENT
                                                            END OF HEADER
G05 2020 01 01 16 00 00-5.491543561220E-06-5.684341886081E-13 0.000000000000E+00
     1.000000000000E+01-7.550000000000E+01 4.848416241712E-09-2.778513632657E+00
    -4.066154360771E-06 5.782520631328E-03 7.297843694687E-06 5.153575376511E+03
     3.168000000000E+05 5.401670932770E-08 4.320114911498E-01-9.126961231232E-08
     9.516368651866E-01 2.343750000000E+02 8.046000618393E-01-8.169626012001E-09
    -3.893019302737E-11 1.000000000000E+00 2.086000000000E+03 0.000000000000E+00
     2.000000000000E+00 0.000000000000E+00-1.117587089539E-08 1.000000000000E+01
     3.096180000000E+05 4.000000000000E+00
G23 2020 01 01 16 00 00-1.458758488297E-04 2.387423592154E-12 0.000000000000E+00
     4.800000000000E+01 3.125000000000E-02 5.098069497915E-09 1.358444207420E+00
     6.146728992462E-08 1.330048439559E-02 9.885057806969E-06 5.153695798874E+03
     3.168000000000E+05-2.775341272354E-07 1.486118887685E+00 7.264316082001E-08
     9.430064092364E-01 1.863437500000E+02-2.211596301063E+00-8.362848346201E-09
     1.160762636137E-10 1.000000000000E+00 2.086000000000E+03 0.000000000000E+00
     2.000000000000E+00 0.000000000000E+00-2.048909664154E-08 4.800000000000E+01
     3.096180000000E+05 4.000000000000E+00
G07 2020 01 01 16 00 00-1.826905645430E-04-8.299139153678E-12 0.000000000000E+00
     1.040000000000E+02 2.678125000000E+01 5.045210153254E-09-7.299512099693E-02
     1.443549990654E-06 1.322538801469E-02 6.046146154404E-06 5.153704093933E+03
     3.168000000000E+05 2.980232238770E-08 2.568412617975E+00 1.508742570877E-07
     9.540172567281E-01 2.578750000000E+02-2.420924438569E+00-8.523212168855E-09
    -1.132190017402E-10 1.000000000000E+00 2.086000000000E+03 0.000000000000E+00
     2.800000000000E+00 0.000000000000E+00-1.117587089539E-08 1.040000000000E+02
     3.096180000000E+05 4.000000000000E+00
G30 2020 01 01 16 00 00-1.192982308567E-04-8.753886504564E-12 0.000000000000E+00
     4.700000000000E+01 2.521875000000E+01 5.272719629937E-09-8.822585662963E-02
     1.173466444016E-06 4.174129455350E-03 6.031244993210E-06 5.153704994202E+03
     3.168000000000E+05 3.911554813385E-08 2.593308862135E+00 2.980232238770E-08
     9.394023262204E-01 2.499375000000E+02-2.928887663745E+00-8.491782288246E-09
    -1.164334213479E-10 1.000000000000E+00 2.086000000000E+03 0.000000000000E+00
     2.000000000000E+00 0.000000000000E+00 3.725290298462E-09 4.700000000000E+01
     3.096180000000E+05 4.000000000000E+00
G28 2020 01 01 16 00 00 7.476196624339E-04-2.046363078989E-12 0.000000000000E+00
     5.800000000000E+01 1.965625000000E+01 3.898376668750E-09-2.743268373922E+00
     1.011416316032E-06 1.893098803703E-02 8.149072527885E-06 5.153709684372E+03
     3.168000000000E+05 1.918524503708E-07-2.588618436634E+00 1.303851604462E-07
     9.796812637027E-01 2.305000000000E+02-1.423835320159E+00-7.419594770189E-09
    -3.189418566371E-10 1.000000000000E+00 2.086000000000E+03 0.000000000000E+00
     2.000000000000E+00 0.000000000000E+00-1.117587089539E-08 5.800000000000E+01
     3.096180000000E+05 4.000000000000E+00
G13 2020 01 01 16 00 00-2.284673973918E-05 2.501110429876E-12 0.000000000000E+00
     1.020000000000E+02 8.593750000000E+00 4.455185576362E-09 1.944211498864E+00
     4.209578037262E-07 4.169660969637E-03 1.020170748234E-05 5.153664352417E+03
     3.168000000000E+05-3.539025783539E-08 1.633978538565E+00-7.078051567078E-08
     9.674318336933E-01 1.849687500000E+02 1.178279385712E+00-7.842469527478E-09
     2.310810540249E-10 1.000000000000E+00 2.086000000000E+03 0.000000000000E+00
     2.800000000000E+00 0.000000000000E+00-1.117587089539E-08 1.020000000000E+02
     3.096180000000E+05 4.000000000000E+00
G04 2020 01 01 16 00 00-2.824934199452E-05-5.229594535194E-12 0.000000000000E+00
     1.960000000000E+02 6.656250000000E+00 4.678052002500E-09 1.913311646641E+00
     3.837049007416E-07 4.439849872142E-04 9.464100003242E-06 5.153733045578E+03
     3.168000000000E+05-2.607703208923E-08 1.540090167852E+00 2.235174179077E-08
     9.595025690076E-01 1.985625000000E+02-2.715036307886E+00-8.008905031613E-09
     2.092944322389E-10 1.000000000000E+00 2.086000000000E+03 0.000000000000E+00
     2.000000000000E+00 6.300000000000E+01-4.190951585770E-09 9.640000000000E+02
     3.096660000000E+05 4.000000000000E+00
G12 2020 01 01 16 00 00 1.669772900641E-04-4.092726157978E-12 0.000000000000E+00
     8.400000000000E+01 8.500000000000E+00 4.171245177676E-09-6.776054131910E-01
     4.563480615616E-07 7.762187975459E-03 7.860362529755E-06 5.153770450592E+03
     3.168000000000E+05 1.862645149231E-09-2.611321493027E+00 1.192092895508E-07
     9.804153530690E-01 2.384375000000E+02 1.094956749184E+00-7.983189674751E-09
    -3.746584631717E-10 1.000000000000E+00 2.086000000000E+03 0.000000000000E+00
     2.000000000000E+00 0.000000000000E+00-1.257285475731E-08 8.400000000000E+01
     3.111180000000E+05 4.000000000000E+00
G09 2020 01 01 15 59 44-1.223720610142E-04-9.094947017729E-12 0.000000000000E+00
     1.500000000000E+01 2.937500000000E+00 4.824129515787E-09-2.964249239096E+00
     2.291053533554E-07 1.718814019114E-03 9.527429938316E-06 5.153535217285E+03
     3.167840000000E+05 3.911554813385E-08 1.493316937639E+00 2.235174179077E-08
     9.521911853277E-01 1.927500000000E+02 1.700317506649E+00-8.063907322679E-09
     2.025084352892E-10 1.000000000000E+00 2.086000000000E+03 0.000000000000E+00
     2.000000000000E+00 0.000000000000E+00 1.396983861923E-09 1.500000000000E+01
     3.113580000000E+05 4.000000000000E+00
G15 2020 01 01 16 00 00-2.616089768708E-04 2.614797267597E-12 0.000000000000E+00
     4.600000000000E+01-1.984375000000E+01 5.324150343661E-09 1.927922134267E+00
    -1.071020960808E-06 1.211328129284E-02 1.039728522301E-05 5.153619815826E+03
     3.168000000000E+05-2.812594175339E-07 1.407614684916E+00-1.415610313416E-07
     9.277382068087E-01 1.638437500000E+02 8.557807687155E-01-8.302488689122E-09
     1.664355041354E-10 1.000000000000E+00 2.086000000000E+03 0.000000000000E+00
     2.000000000000E+00 0.000000000000E+00-1.117587089539E-08 4.600000000000E+01
     3.131280000000E+05 4.000000000000E+00
G13 2020 01 01 15 59 44-2.284301444888E-05 2.501110429876E-12 0.000000000000E+00
     8.000000000000E+00 8.593750000000E+00 4.454828418628E-09 1.941878039198E+00
     4.209578037262E-07 4.169661668129E-03 1.020170748234E-05 5.153664354324E+03
     3.167840000000E+05-3.539025783539E-08 1.633978680468E+00-7.078051567078E-08
     9.674318380821E-01 1.849687500000E+02 1.178279074110E+00-7.842469527478E-09
     2.310810540249E-10 1.000000000000E+00 2.086000000000E+03 0.000000000000E+00
     2.000000000000E+00 0.000000000000E+00-1.117587089539E-08 8.000000000000E+00
     3.147060000000E+05 4.000000000000E+00
G07 2020 01 01 15 59 44-1.826868392527E-04-8.299139153678E-12 0.000000000000E+00
     1.900000000000E+01 2.678125000000E+01 5.044852995520E-09-7.532907074102E-02
     1.443549990654E-06 1.322538976092E-02 6.046146154404E-06 5.153704099655E+03
     3.167840000000E+05 2.980232238770E-08 2.568412733545E+00 1.508742570877E-07
     9.540172640427E-01 2.578750000000E+02-2.420924260093E+00-8.523212168855E-09
    -1.132190017402E-10 1.000000000000E+00 2.086000000000E+03 0.000000000000E+00
     2.000000000000E+00 0.000000000000E+00-1.117587089539E-08 1.900000000000E+01
     3.149160000000E+05 4.000000000000E+00
G02 2020 01 01 18 00 00-3.777295351028E-04-7.275957614183E-12 0.000000000000E+00
     9.900000000000E+01-3.468750000000E+00 4.512330813833E-09 1.976380115068E+00
    -4.321336746216E-07 1.965260098223E-02 4.041939973831E-06 5.153607763290E+03
     3.240000000000E+05 2.831220626831E-07-6.524361548704E-01-3.743916749954E-07
     9.575320988154E-01 2.960937500000E+02-1.682125535166E+00-8.074264896971E-09
     2.067943280995E-10 1.000000000000E+00 2.086000000000E+03 0.000000000000E+00
     2.800000000000E+00 0.000000000000E+00-1.769512891769E-08 9.900000000000E+01
     3.168180000000E+05 4.000000000000E+00
G13 2020 01 01 17 59 44-2.282485365868E-05 2.501110429876E-12 0.000000000000E+00
     1.400000000000E+01 1.500000000000E+01 4.381968240852E-09 2.991908163087E+00
     6.482005119324E-07 4.168860032223E-03 1.003593206406E-05 5.153666271210E+03
     3.239840000000E+05 1.490116119385E-08 1.633922428342E+00-4.656612873077E-08
     9.674336111388E-01 1.890312500000E+02 1.178434200480E+00-7.812468277805E-09
     2.303667385565E-10 1.000000000000E+00 2.086000000000E+03 0.000000000000E+00
     2.000000000000E+00 0.000000000000E+00-1.117587089539E-08 1.400000000000E+01
     3.168180000000E+05 4.000000000000E+00
G06 2020 01 01 18 00 00-1.703682355583E-04-1.057287590811E-11 0.000000000000E+00
     9.200000000000E+01-8.937500000000E+00 4.142672558940E-09 2.023999873067E+00
    -4.079192876816E-07 1.744781853631E-03 4.434958100319E-06 5.153725873947E+03
     3.240000000000E+05 8.009374141693E-08-5.874407600084E-01 2.048909664154E-08
     9.781107231291E-01 3.016562500000E+02-1.190285574869E+00-8.030334495665E-09
     1.742929742877E-10 1.000000000000E+00 2.086000000000E+03 0.000000000000E+00
     2.000000000000E+00 0.000000000000E+00 4.656612873077E-09 9.200000000000E+01
     3.168180000000E+05 4.000000000000E+00
